{
    "links": {
        "self": "http://www.neowsapp.com/rest/v1/neo/3698529?api_key=iIulBulltgU6a56xZRHN4H3l9WmuAYTsLGpBGhQ2"
    },
    "id": "3698529",
    "neo_reference_id": "3698529",
    "name": "(2014 HD198)",
    "designation": "2014 HD198",
    "nasa_jpl_url": "http://ssd.jpl.nasa.gov/sbdb.cgi?sstr=3698529",
    "absolute_magnitude_h": 29.7,
    "estimated_diameter": {
        "kilometers": {
            "estimated_diameter_min": 0.0030517923,
            "estimated_diameter_max": 0.0068240151
        },
        "meters": {
            "estimated_diameter_min": 3.0517923259,
            "estimated_diameter_max": 6.824015094
        },
        "miles": {
            "estimated_diameter_min": 0.0018962952,
            "estimated_diameter_max": 0.0042402451
        },
        "feet": {
            "estimated_diameter_min": 10.0124423346,
            "estimated_diameter_max": 22.388501681
        }
    },
    "is_potentially_hazardous_asteroid": false,
    "close_approach_data": [
        {
            "close_approach_date": "2014-04-30",
            "close_approach_date_full": "2014-Apr-30 19:57",
            "epoch_date_close_approach": 1398887820000,
            "relative_velocity": {
                "kilometers_per_second": "17.0065135447",
                "kilometers_per_hour": "61223.4487608275",
                "miles_per_hour": "38041.8701480819"
            },
            "miss_distance": {
                "astronomical": "0.0046223423",
                "lunar": "1.7980911547",
                "kilometers": "691492.562490901",
                "miles": "429673.5541043938"
            },
            "orbiting_body": "Earth"
        },
        {
            "close_approach_date": "2014-05-01",
            "close_approach_date_full": "2014-May-01 00:34",
            "epoch_date_close_approach": 1398904440000,
            "relative_velocity": {
                "kilometers_per_second": "17.5298802365",
                "kilometers_per_hour": "63107.5688512826",
                "miles_per_hour": "39212.5891009539"
            },
            "miss_distance": {
                "astronomical": "0.0060269501",
                "lunar": "2.3444835889",
                "kilometers": "901618.897556287",
                "miles": "560240.0042672806"
            },
            "orbiting_body": "Moon"
        },
        {
            "close_approach_date": "2035-10-07",
            "close_approach_date_full": "2035-Oct-07 19:31",
            "epoch_date_close_approach": 2075398260000,
            "relative_velocity": {
                "kilometers_per_second": "24.2263848157",
                "kilometers_per_hour": "87214.9853365092",
                "miles_per_hour": "54192.0001942326"
            },
            "miss_distance": {
                "astronomical": "0.2464797617",
                "lunar": "95.8806273013",
                "kilometers": "36872847.348427579",
                "miles": "22911724.9115114302"
            },
            "orbiting_body": "Earth"
        }
    ],
    "orbital_data": {
        "orbit_id": "3",
        "orbit_determination_date": "2017-04-06 08:40:52",
        "first_observation_date": "2014-04-25",
        "last_observation_date": "2014-04-26",
        "data_arc_in_days": 1,
        "observations_used": 12,
        "orbit_uncertainty": "9",
        "minimum_orbit_intersection": "1.6828E-5",
        "jupiter_tisserand_invariant": "3.437",
        "epoch_osculation": "2456773.5",
        "eccentricity": ".6431161935551437",
        "semi_major_axis": "2.114526440904154",
        "inclination": ".9815241038383306",
        "ascending_node_longitude": "220.405971385984",
        "orbital_period": "1123.099171937002",
        "perihelion_distance": ".754640245058169",
        "perihelion_argument": "69.117912853023",
        "aphelion_distance": "3.474412636750139",
        "perihelion_time": "2456822.425411391414",
        "mean_anomaly": "344.3173705928999",
        "mean_motion": ".3205415950749124",
        "equinox": "J2000",
        "orbit_class": {
            "orbit_class_type": "APO",
            "orbit_class_description": "Near-Earth asteroid orbits which cross the Earth’s orbit similar to that of 1862 Apollo",
            "orbit_class_range": "a (semi-major axis) > 1.0 AU; q (perihelion) < 1.017 AU"
        }
    },
    "is_sentry_object": false
}